[
    {
        "Altitude(m)": 556376.4479848128,
        "Argument of Periapsis(deg)": 0.0,
        "Eccentricity": 0.0,
        "Inclination(deg)": 53.0,
        "Latitude(deg)": 37.24558627543064,
        "Longitude(deg)": -109.70480559144215,
        "Mean Anomaly(deg)": 130.90910000000005,
        "RAAN(deg)": 205.0,
        "Satellite Name": "Starlink Shell 1 910",
        "Satellite Number": 910,
        "Semi-Major Axis(m)": 6931778.249405717,
        "Time(s)": 0
    },
    {
        "Altitude(m)": 556293.3184343617,
        "Argument of Periapsis(deg)": 0.00034857847951123687,
        "Eccentricity": 0.0,
        "Inclination(deg)": 53.0,
        "Latitude(deg)": 36.8313629660149,
        "Longitude(deg)": -109.15634511836323,
        "Mean Anomaly(deg)": 131.53593120355674,
        "RAAN(deg)": 204.99948122992254,
        "Satellite Name": "Starlink Shell 1 910",
        "Satellite Number": 910,
        "Semi-Major Axis(m)": 6931778.249405717,
        "Time(s)": 10
    },
    {
        "Altitude(m)": 556210.3850392085,
        "Argument of Periapsis(deg)": 0.0006971569590224737,
        "Eccentricity": 0.0,
        "Inclination(deg)": 53.0,
        "Latitude(deg)": 36.414216573491885,
        "Longitude(deg)": -108.61422527441073,
        "Mean Anomaly(deg)": 132.16276240711346,
        "RAAN(deg)": 204.99896245984505,
        "Satellite Name": "Starlink Shell 1 910",
        "Satellite Number": 910,
        "Semi-Major Axis(m)": 6931778.249405717,
        "Time(s)": 20
    },
    {
        "Altitude(m)": 556127.7033578824,
        "Argument of Periapsis(deg)": 0.0010457354385337105,
        "Eccentricity": 0.0,
        "Inclination(deg)": 53.0,
        "Latitude(deg)": 35.9942207043042,
        "Longitude(deg)": -108.07832628144902,
        "Mean Anomaly(deg)": 132.78959361067012,
        "RAAN(deg)": 204.99844368976758,
        "Satellite Name": "Starlink Shell 1 910",
        "Satellite Number": 910,
        "Semi-Major Axis(m)": 6931778.249405717,
        "Time(s)": 30
    },
    {
        "Altitude(m)": 556045.3290298468,
        "Argument of Periapsis(deg)": 0.0013943139180449475,
        "Eccentricity": 0.0,
        "Inclination(deg)": 53.0,
        "Latitude(deg)": 35.57144732511033,
        "Longitude(deg)": -107.54852828605627,
        "Mean Anomaly(deg)": 133.41642481422684,
        "RAAN(deg)": 204.99792491969012,
        "Satellite Name": "Starlink Shell 1 910",
        "Satellite Number": 910,
        "Semi-Major Axis(m)": 6931778.249405717,
        "Time(s)": 40
    },
    {
        "Altitude(m)": 555963.3177469003,
        "Argument of Periapsis(deg)": 0.0017428923975561844,
        "Eccentricity": 0.0,
        "Inclination(deg)": 53.0,
        "Latitude(deg)": 35.1459667925875,
        "Longitude(deg)": -107.02471248241051,
        "Mean Anomaly(deg)": 134.0432560177836,
        "RAAN(deg)": 204.99740614961263,
        "Satellite Name": "Starlink Shell 1 910",
        "Satellite Number": 910,
        "Semi-Major Axis(m)": 6931778.249405717,
        "Time(s)": 50
    },
    {
        "Altitude(m)": 555881.7252244366,
        "Argument of Periapsis(deg)": 0.002091470877067421,
        "Eccentricity": 0.0,
        "Inclination(deg)": 53.0,
        "Latitude(deg)": 34.717847884061875,
        "Longitude(deg)": -106.50676071201327,
        "Mean Anomaly(deg)": 134.6700872213403,
        "RAAN(deg)": 204.99688737953517,
        "Satellite Name": "Starlink Shell 1 910",
        "Satellite Number": 910,
        "Semi-Major Axis(m)": 6931778.249405717,
        "Time(s)": 60
    },
    {
        "Altitude(m)": 555800.6071727322,
        "Argument of Periapsis(deg)": 0.0024400493565786582,
        "Eccentricity": 0.0,
        "Inclination(deg)": 53.0,
        "Latitude(deg)": 34.28715782882192,
        "Longitude(deg)": -105.994555053695,
        "Mean Anomaly(deg)": 135.29691842489703,
        "RAAN(deg)": 204.99636860945768,
        "Satellite Name": "Starlink Shell 1 910",
        "Satellite Number": 910,
        "Semi-Major Axis(m)": 6931778.249405717,
        "Time(s)": 70
    },
    {
        "Altitude(m)": 555720.0192681144,
        "Argument of Periapsis(deg)": 0.002788627836089895,
        "Eccentricity": 0.0,
        "Inclination(deg)": 53.0,
        "Latitude(deg)": 33.85396233998247,
        "Longitude(deg)": -105.48797891732774,
        "Mean Anomaly(deg)": 135.92374962845372,
        "RAAN(deg)": 204.9958498393802,
        "Satellite Name": "Starlink Shell 1 910",
        "Satellite Number": 910,
        "Semi-Major Axis(m)": 6931778.249405717,
        "Time(s)": 80
    },
    {
        "Altitude(m)": 555640.0171241559,
        "Argument of Periapsis(deg)": 0.0031372063156011316,
        "Eccentricity": 0.0,
        "Inclination(deg)": 53.0,
        "Latitude(deg)": 33.4183256467736,
        "Longitude(deg)": -104.9869166160401,
        "Mean Anomaly(deg)": 136.55058083201044,
        "RAAN(deg)": 204.99533106930272,
        "Satellite Name": "Starlink Shell 1 910",
        "Satellite Number": 910,
        "Semi-Major Axis(m)": 6931778.249405717,
        "Time(s)": 90
    },
    {
        "Altitude(m)": 555560.6562628011,
        "Argument of Periapsis(deg)": 0.0034857847951123688,
        "Eccentricity": 0.0,
        "Inclination(deg)": 53.0,
        "Latitude(deg)": 32.98031052714411,
        "Longitude(deg)": -104.49125293032621,
        "Mean Anomaly(deg)": 137.17741203556716,
        "RAAN(deg)": 204.9948122992253,
        "Satellite Name": "Starlink Shell 1 910",
        "Satellite Number": 910,
        "Semi-Major Axis(m)": 6931778.249405717,
        "Time(s)": 100
    },
    {
        "Altitude(m)": 555481.992085564,
        "Argument of Periapsis(deg)": 0.003834363274623606,
        "Eccentricity": 0.0,
        "Inclination(deg)": 53.0,
        "Latitude(deg)": 32.53997834057694,
        "Longitude(deg)": -104.00087417741939,
        "Mean Anomaly(deg)": 137.8042432391239,
        "RAAN(deg)": 204.99429352914777,
        "Satellite Name": "Starlink Shell 1 910",
        "Satellite Number": 910,
        "Semi-Major Axis(m)": 6931778.249405717,
        "Time(s)": 110
    },
    {
        "Altitude(m)": 555404.0798446578,
        "Argument of Periapsis(deg)": 0.004182941754134842,
        "Eccentricity": 0.0,
        "Inclination(deg)": 53.0,
        "Latitude(deg)": 32.09738906102193,
        "Longitude(deg)": -103.51566776066761,
        "Mean Anomaly(deg)": 138.43107444268057,
        "RAAN(deg)": 204.99377475907033,
        "Satellite Name": "Starlink Shell 1 910",
        "Satellite Number": 910,
        "Semi-Major Axis(m)": 6931778.249405717,
        "Time(s)": 120
    },
    {
        "Altitude(m)": 555326.9746142054,
        "Argument of Periapsis(deg)": 0.004531520233646079,
        "Eccentricity": 0.0,
        "Inclination(deg)": 53.0,
        "Latitude(deg)": 31.652601309861772,
        "Longitude(deg)": -103.03552171224324,
        "Mean Anomaly(deg)": 139.05790564623732,
        "RAAN(deg)": 204.99325598899287,
        "Satellite Name": "Starlink Shell 1 910",
        "Satellite Number": 910,
        "Semi-Major Axis(m)": 6931778.249405717,
        "Time(s)": 130
    },
    {
        "Altitude(m)": 555250.7312614756,
        "Argument of Periapsis(deg)": 0.0048800987131573164,
        "Eccentricity": 0.0,
        "Inclination(deg)": 53.0,
        "Latitude(deg)": 31.20567238883602,
        "Longitude(deg)": -102.56032574249743,
        "Mean Anomaly(deg)": 139.68473684979398,
        "RAAN(deg)": 204.99273721891538,
        "Satellite Name": "Starlink Shell 1 910",
        "Satellite Number": 910,
        "Semi-Major Axis(m)": 6931778.249405717,
        "Time(s)": 140
    },
    {
        "Altitude(m)": 555175.4044181835,
        "Argument of Periapsis(deg)": 0.005228677192668553,
        "Eccentricity": 0.0,
        "Inclination(deg)": 53.0,
        "Latitude(deg)": 30.75665831285187,
        "Longitude(deg)": -102.08997077063496,
        "Mean Anomaly(deg)": 140.31156805335073,
        "RAAN(deg)": 204.99221844883792,
        "Satellite Name": "Starlink Shell 1 910",
        "Satellite Number": 910,
        "Semi-Major Axis(m)": 6931778.249405717,
        "Time(s)": 150
    },
    {
        "Altitude(m)": 555101.0484518444,
        "Argument of Periapsis(deg)": 0.00557725567217979,
        "Eccentricity": 0.0,
        "Inclination(deg)": 53.0,
        "Latitude(deg)": 30.305613842621234,
        "Longitude(deg)": -101.62434844998124,
        "Mean Anomaly(deg)": 140.93839925690747,
        "RAAN(deg)": 204.99169967876045,
        "Satellite Name": "Starlink Shell 1 910",
        "Satellite Number": 910,
        "Semi-Major Axis(m)": 6931778.249405717,
        "Time(s)": 160
    },
    {
        "Altitude(m)": 555027.7174372242,
        "Argument of Periapsis(deg)": 0.0059258341516910265,
        "Eccentricity": 0.0,
        "Inclination(deg)": 53.0,
        "Latitude(deg)": 29.852592517069255,
        "Longitude(deg)": -101.16335220109059,
        "Mean Anomaly(deg)": 141.56523046046414,
        "RAAN(deg)": 204.99118090868296,
        "Satellite Name": "Starlink Shell 1 910",
        "Satellite Number": 910,
        "Semi-Major Axis(m)": 6931778.249405717,
        "Time(s)": 170
    },
    {
        "Altitude(m)": 554955.4651279078,
        "Argument of Periapsis(deg)": 0.006274412631202263,
        "Eccentricity": 0.0,
        "Inclination(deg)": 53.0,
        "Latitude(deg)": 29.39764668546383,
        "Longitude(deg)": -100.7068767273127,
        "Mean Anomaly(deg)": 142.1920616640209,
        "RAAN(deg)": 204.99066213860547,
        "Satellite Name": "Starlink Shell 1 910",
        "Satellite Number": 910,
        "Semi-Major Axis(m)": 6931778.249405717,
        "Time(s)": 180
    }
]